OBJECT_NAME,OBJECT_ID,EPOCH,MEAN_MOTION,ECCENTRICITY,INCLINATION,RA_OF_ASC_NODE,ARG_OF_PERICENTER,MEAN_ANOMALY,EPHEMERIS_TYPE,CLASSIFICATION_TYPE,NORAD_CAT_ID,ELEMENT_SET_NO,REV_AT_EPOCH,BSTAR,MEAN_MOTION_DOT,MEAN_MOTION_DDOT
SKYSAT-C4,2016-058B,2026-07-16T14:17:14.047872,15.49466219,.0003471,96.9160,218.1520,115.6597,244.5014,0,U,41771,999,55002,.1973E-3,.10768E-3,0
SKYSAT-C5,2016-058C,2026-07-16T15:31:09.401376,15.33730928,.0002707,97.0452,236.9643,156.7043,203.4323,0,U,41772,999,54826,.12421E-3,.3977E-4,0
SKYSAT-C2,2016-058D,2026-07-16T20:13:58.391616,15.42703276,.000119,97.0156,218.8331,345.3927,14.7287,0,U,41773,999,54962,.16203E-3,.6988E-4,0
SKYSAT-C3,2016-058E,2026-07-16T15:37:37.303680,15.53750527,.0002596,96.8990,227.3861,131.3109,228.8370,0,U,41774,999,55068,.22895E-3,.14584E-3,0
ALSAT-1B,2016-059C,2026-07-16T20:55:40.964160,14.72295901,.0010404,97.7749,205.3551,124.9136,235.3051,0,U,41785,999,52494,.66375E-4,.373E-5,0
PATHFINDER 1,2016-059E,2026-07-16T19:02:06.919296,14.67694165,.0029869,97.8177,195.7348,110.8632,249.5777,0,U,41787,999,52405,.53239E-4,.258E-5,0
SCATSAT 1,2016-059H,2026-07-16T15:09:55.472256,14.79589288,.0055316,98.1177,261.7000,151.9832,208.4376,0,U,41790,999,10594,.89739E-4,.633E-5,0
GOKTURK 1A,2016-073A,2026-07-16T20:44:49.287840,14.62793469,.0001419,98.1215,92.0691,81.3413,278.7950,0,U,41875,999,51316,.21486E-4,.63E-6,0
RESOURCESAT-2A,2016-074A,2026-07-16T20:13:17.152896,14.21607927,.0002334,98.7523,271.1029,24.6403,335.4886,0,U,41877,999,49851,-.36254E-4,-.124E-5,0
CARTOSAT-2D,2017-008A,2026-07-16T20:42:39.597120,15.19288158,.0006159,97.4087,256.6115,133.5266,226.6481,0,U,41948,999,52208,.33394E-4,.637E-5,0
SENTINEL-2B,2017-013A,2026-07-16T20:35:19.166208,14.30814801,.0001205,98.5688,272.2120,89.8288,270.3033,0,U,42063,999,48888,-.33627E-4,-.132E-5,0
CARTOSAT-2E,2017-036C,2026-07-16T19:33:26.802720,15.19260840,.000342,97.4259,257.1259,182.0478,178.0743,0,U,42767,999,50264,.75673E-4,.1528E-4,0
FORMOSAT-5,2017-049A,2026-07-16T20:16:42.115296,14.50908053,.0011229,98.2246,272.4946,358.7980,1.3186,0,U,42920,999,47097,.19042E-4,.31E-6,0
SENTINEL-5P,2017-064A,2026-07-16T10:53:04.341408,14.19523387,.0001152,98.7929,139.3777,93.3196,266.8111,0,U,42969,999,45371,.25784E-4,.1E-6,0
SKYSAT-C11,2017-068A,2026-07-16T20:18:18.529920,15.59385175,.0001161,97.4384,348.0068,155.9062,204.2249,0,U,42987,999,48786,.24059E-3,.1889E-3,0
SKYSAT-C10,2017-068B,2026-07-16T15:06:16.635744,15.35133944,.0001491,97.4544,334.7788,111.2984,248.8418,0,U,42988,999,48687,.18042E-3,.6069E-4,0
SKYSAT-C9,2017-068C,2026-07-16T19:57:39.457152,15.42238980,.0008497,97.4465,336.2058,39.4522,320.7343,0,U,42989,999,48732,.17908E-3,.7614E-4,0
SKYSAT-C8,2017-068D,2026-07-16T08:38:40.632000,15.37504120,.0001223,97.4560,334.4189,104.1134,256.0246,0,U,42990,999,48679,.14989E-3,.5429E-4,0
SKYSAT-C7,2017-068E,2026-07-16T14:45:40.406400,15.37458346,.0005615,97.4572,335.6692,16.6031,343.5396,0,U,42991,999,48689,.15969E-3,.5783E-4,0
SKYSAT-C6,2017-068F,2026-07-16T19:46:00.076800,15.34186474,.0005073,97.4610,335.7271,85.4144,274.7678,0,U,42992,999,48686,.15637E-3,.5094E-4,0
CARTOSAT-2F,2018-004A,2026-07-16T20:20:25.520640,15.19177939,.0002399,97.4769,257.1900,130.3480,229.7964,0,U,43111,999,47183,.75535E-4,.152E-4,0
GAOFEN-1 02,2018-031A,2026-07-16T20:19:05.833920,14.76471223,.0001478,98.0514,260.2883,276.8076,83.2966,0,U,43259,999,44707,-.22108E-4,-.205E-5,0
GAOFEN-1 03,2018-031B,2026-07-16T19:47:34.345248,14.76463729,.0002287,98.0503,260.1216,11.2596,348.8664,0,U,43260,999,44706,.50858E-4,.302E-5,0
GAOFEN-1 04,2018-031D,2026-07-16T20:50:09.640896,14.76471853,.0001195,98.0515,260.3594,55.7150,304.4173,0,U,43262,999,44706,.52839E-4,.316E-5,0
SENTINEL-3B,2018-039A,2026-07-16T18:49:41.244096,14.26736639,.0001186,98.6236,264.8900,119.7266,240.4033,0,U,43437,999,42834,.37772E-4,.48E-6,0
GAOFEN-5 01,2018-043A,2026-07-16T12:26:58.393824,14.60623810,.0002019,98.4591,169.7245,29.4276,330.7037,0,U,43461,999,43597,.36144E-4,.127E-5,0
GAOFEN-6,2018-048A,2026-07-16T21:22:46.574976,14.76385169,.0012115,98.0957,260.5965,76.6754,283.5805,0,U,43484,999,43777,.63124E-4,.386E-5,0
GAOFEN-11 01,2018-063A,2026-07-16T21:21:40.716576,15.56097530,.0003337,97.1273,264.6990,191.5070,168.6109,0,U,43585,999,44496,.10111E-3,.6957E-4,0
ICESAT-2,2018-070A,2026-07-16T19:36:52.706016,15.28194508,.0005495,92.0094,298.9863,55.3747,304.8019,0,U,43613,999,43698,.19553E-3,.5373E-4,0
HYSIS,2018-096A,2026-07-16T20:25:36.386976,14.78670460,.0001816,97.9829,264.3643,82.0481,278.0936,0,U,43719,999,41180,.74548E-5,.3E-7,0
KAZSTSAT,2018-099AB,2026-07-16T15:37:25.123008,14.99956799,.000729,97.4316,228.2518,335.1029,24.9842,0,U,43783,999,41572,.29099E-4,.306E-5,0
